NORAD_CAT_ID,OBJECT_NAME,OBJECT_TYPE,EPOCH,MEAN_MOTION,ECCENTRICITY,INCLINATION,RA_OF_ASC_NODE,ARG_OF_PERICENTER,MEAN_ANOMALY,BSTAR,MEAN_MOTION_DOT,MEAN_MOTION_DDOT,TLE_LINE0,TLE_LINE1,TLE_LINE2,SEMIMAJOR_AXIS,PERIOD,APOGEE,PERIGEE,DECAYED
53855.0,STARLINK-4703,PAYLOAD,2024-05-14 10:10:20,15.08895166,9.77e-05,53.2183,35.872,61.8871,298.222,0.0015688,0.00024805,0.0,0 STARLINK-4703,1 53855U 22114AP  24135.42385042  .00024805  00000-0  15688-2 0  9998,2 53855  53.2183  35.8720 0000977  61.8871 298.2220 15.08895166 92150,6917.712,95.434,540.253,538.901,0.0
53855.0,STARLINK-4703,PAYLOAD,2024-05-14 21:18:02,15.0886144,0.0001447,53.2166,33.7887,76.1468,283.9685,-0.00010803,-2.008e-05,0.0,0 STARLINK-4703,1 53855U 22114AP  24135.88753222 -.00002008  00000-0 -10803-3 0  9995,2 53855  53.2166  33.7887 0001447  76.1468 283.9685 15.08861440 92228,6917.815,95.436,540.681,538.679,0.0
53855.0,STARLINK-4703,PAYLOAD,2024-05-14 22:53:25,15.08862803,0.0001528,53.2171,33.492,77.943,282.1733,-8.8726e-05,-1.701e-05,0.0,0 STARLINK-4703,1 53855U 22114AP  24135.95377089 -.00001701  00000-0 -88726-4 0  9995,2 53855  53.2171  33.4920 0001528  77.9430 282.1733 15.08862803 92776,6917.811,95.436,540.733,538.619,0.0
53855.0,STARLINK-4703,PAYLOAD,2024-05-15 00:28:48,15.08877929,0.0001333,53.2168,33.1931,69.7974,290.3161,0.00012396,1.687e-05,0.0,0 STARLINK-4703,1 53855U 22114AP  24136.02000143  .00001687  00000-0  12396-3 0  9998,2 53855  53.2168  33.1931 0001333  69.7974 290.3161 15.08877929 92240,6917.764,95.435,540.552,538.707,0.0
53855.0,STARLINK-4703,PAYLOAD,2024-05-15 10:01:06,15.08876652,0.0001371,53.2172,31.4114,86.9154,273.1995,5.9242e-05,6.56e-06,0.0,0 STARLINK-4703,1 53855U 22114AP  24136.41743220  .00000656  00000-0  59242-4 0  9998,2 53855  53.2172  31.4114 0001371  86.9154 273.1995 15.08876652 92844,6917.768,95.435,540.582,538.685,0.0
53855.0,STARLINK-4703,PAYLOAD,2024-05-15 21:08:49,15.08841897,0.0001125,53.2182,29.3265,83.1054,277.0066,-0.0005045,-8.308e-05,0.0,0 STARLINK-4703,1 53855U 22114AP  24136.88112277 -.00008308  00000-0 -50450-3 0  9996,2 53855  53.2182  29.3265 0001125  83.1054 277.0066 15.08841897 92376,6917.875,95.437,540.518,538.961,0.0
53855.0,STARLINK-4703,PAYLOAD,2024-05-15 22:44:11,15.08861257,8.44e-05,53.2177,29.0313,96.8884,263.2205,-0.00052505,-8.639e-05,0.0,0 STARLINK-4703,1 53855U 22114AP  24136.94734981 -.00008639  00000-0 -52505-3 0  9995,2 53855  53.2177  29.0313 0000844  96.8884 263.2205 15.08861257 92925,6917.815,95.436,540.264,539.097,0.0
53855.0,STARLINK-4703,PAYLOAD,2024-05-16 00:19:34,15.0886262,7.92e-05,53.2174,28.7336,80.2808,279.8274,-0.00047583,-7.857e-05,0.0,0 STARLINK-4703,1 53855U 22114AP  24137.01358856 -.00007857  00000-0 -47583-3 0  9998,2 53855  53.2174  28.7336 0000792  80.2808 279.8274 15.08862620 92393,6917.811,95.436,540.224,539.128,0.0
53855.0,STARLINK-4703,PAYLOAD,2024-05-16 09:51:52,15.08873146,0.0002083,53.2184,26.9485,72.1938,287.9281,-0.00019203,-3.346e-05,0.0,0 STARLINK-4703,1 53855U 22114AP  24137.41102199 -.00003346  00000-0 -19203-3 0  9996,2 53855  53.2184  26.9485 0002083  72.1938 287.9281 15.08873146 92458,6917.779,95.435,541.085,538.203,0.0
53855.0,STARLINK-4703,PAYLOAD,2024-05-16 22:34:58,15.08827883,1.04e-05,53.2177,24.5692,89.5,270.6004,-0.00023034,-3.95e-05,0.0,0 STARLINK-4703,1 53855U 22114AP  24137.94095651 -.00003950  00000-0 -23034-3 0  9996,2 53855  53.2177  24.5692 0000104  89.5000 270.6004 15.08827883 93076,6917.917,95.438,539.854,539.71,0.0
53855.0,STARLINK-4703,PAYLOAD,2024-05-17 09:42:38,15.08874453,4.42e-05,53.2168,22.4898,273.5042,86.59,0.00062625,9.702e-05,0.0,0 STARLINK-4703,1 53855U 22114AP  24138.40461364  .00009702  00000-0  62625-3 0  9994,2 53855  53.2168  22.4898 0000442 273.5042  86.5900 15.08874453 92609,6917.775,95.435,539.946,539.334,0.0
53855.0,STARLINK-4703,PAYLOAD,2024-05-17 16:04:14,15.0881301,0.0002152,53.2175,21.2996,86.9349,273.1889,-0.00032117,-5.392e-05,0.0,0 STARLINK-4703,1 53855U 22114AP  24138.66960748 -.00005392  00000-0 -32117-3 0  9998,2 53855  53.2175  21.2996 0002152  86.9349 273.1889 15.08813010 92645,6917.963,95.439,541.317,538.339,0.0
53855.0,STARLINK-4703,PAYLOAD,2024-05-17 22:25:46,15.0882036,0.0001844,53.214,20.1112,86.9149,273.2054,-0.00015467,-2.748e-05,0.0,0 STARLINK-4703,1 53855U 22114AP  24138.93456619 -.00002748  00000-0 -15467-3 0  9996,2 53855  53.2140  20.1112 0001844  86.9149 273.2054 15.08820360 93226,6917.94,95.439,541.081,538.53,0.0
53855.0,STARLINK-4703,PAYLOAD,2024-05-18 09:33:27,15.08845423,0.0001567,53.2184,18.0279,91.0611,269.0561,0.00020606,2.993e-05,0.0,0 STARLINK-4703,1 53855U 22114AP  24139.39823847  .00002993  00000-0  20606-3 0  9999,2 53855  53.2184  18.0279 0001567  91.0611 269.0561 15.08845423 92757,6917.864,95.437,540.813,538.645,0.0
53855.0,STARLINK-4703,PAYLOAD,2024-05-18 22:16:32,15.08852406,9.96e-05,53.2171,15.6489,95.2756,264.835,0.00050381,7.742e-05,0.0,0 STARLINK-4703,1 53855U 22114AP  24139.92815734  .00007742  00000-0  50381-3 0  9994,2 53855  53.2171  15.6489 0000996  95.2756 264.8350 15.08852406 93377,6917.842,95.437,540.396,539.018,0.0
53855.0,STARLINK-4703,PAYLOAD,2024-05-19 20:31:57,15.08821525,0.0001544,53.2176,11.4861,74.3326,285.7836,-0.0002643,-4.49e-05,0.0,0 STARLINK-4703,1 53855U 22114AP  24140.85552917 -.00004490  00000-0 -26430-3 0  9996,2 53855  53.2176  11.4861 0001544  74.3326 285.7836 15.08821525 92975,6917.937,95.439,540.87,538.734,0.0
53855.0,STARLINK-4703,PAYLOAD,2024-05-19 22:07:20,15.0882234,0.0001554,53.2175,11.1891,79.2554,280.8613,-0.00028333,-4.792e-05,0.0,0 STARLINK-4703,1 53855U 22114AP  24140.92176894 -.00004792  00000-0 -28333-3 0  9999,2 53855  53.2175  11.1891 0001554  79.2554 280.8613 15.08822340 93529,6917.934,95.439,540.874,538.724,0.0
53855.0,STARLINK-4703,PAYLOAD,2024-05-20 20:22:44,15.08838247,0.0001388,53.2164,7.0236,69.2628,290.8513,0.00034415,5.193e-05,0.0,0 STARLINK-4703,1 53855U 22114AP  24141.84913185  .00005193  00000-0  34415-3 0  9995,2 53855  53.2164   7.0236 0001388  69.2628 290.8513 15.08838247 93129,6917.886,95.438,540.711,538.791,0.0
53855.0,STARLINK-4703,PAYLOAD,2024-05-21 20:13:31,15.08851096,0.0001253,53.2167,2.56,73.8667,286.2463,0.00045446,6.954e-05,0.0,0 STARLINK-4703,1 53855U 22114AP  24142.84272938  .00006954  00000-0  45446-3 0  9992,2 53855  53.2167   2.5600 0001253  73.8667 286.2463 15.08851096 93818,6917.846,95.437,540.578,538.845,0.0
53855.0,STARLINK-4703,PAYLOAD,2024-05-21 23:24:18,15.0885221,0.0001245,53.2167,1.9662,78.8202,281.293,0.00042597,6.5e-05,0.0,0 STARLINK-4703,1 53855U 22114AP  24142.97520840  .00006500  00000-0  42597-3 0  9995,2 53855  53.2167   1.9662 0001245  78.8202 281.2930 15.08852210 93295,6917.843,95.437,540.569,538.847,0.0
53855.0,STARLINK-4703,PAYLOAD,2024-05-22 20:04:18,15.08841399,0.0001386,53.218,358.1111,104.7919,255.3226,0.00013981,1.938e-05,0.0,0 STARLINK-4703,1 53855U 22114AP  24143.83632925  .00001938  00000-0  13981-3 0  9994,2 53855  53.2180 358.1111 0001386 104.7919 255.3226 15.08841399 93427,6917.876,95.437,540.7,538.782,0.0
53855.0,STARLINK-4703,PAYLOAD,2024-05-22 21:39:42,15.08841016,0.0001252,53.2172,357.8112,88.9155,271.198,6.1862e-06,-1.89e-06,0.0,0 STARLINK-4703,1 53855U 22114AP  24143.90256947 -.00000189  00000-0  61862-5 0  9999,2 53855  53.2172 357.8112 0001252  88.9155 271.1980 15.08841016 93971,6917.877,95.437,540.608,538.876,0.0
53855.0,STARLINK-4703,PAYLOAD,2024-05-23 21:30:29,15.08843743,0.0001255,53.2175,353.349,85.5329,274.5806,0.0001102,1.467e-05,0.0,0 STARLINK-4703,1 53855U 22114AP  24144.89616971  .00001467  00000-0  11020-3 0  9993,2 53855  53.2175 353.3490 0001255  85.5329 274.5806 15.08843743 93583,6917.869,95.437,540.602,538.866,0.0
53855.0,STARLINK-4703,PAYLOAD,2024-05-23 23:05:52,15.08843934,0.0001261,53.2175,353.051,85.3957,274.7179,0.00010783,1.429e-05,0.0,0 STARLINK-4703,1 53855U 22114AP  24144.96240941  .00001429  00000-0  10783-3 0  9994,2 53855  53.2175 353.0510 0001261  85.3957 274.7179 15.08843934 94134,6917.868,95.437,540.606,538.861,0.0
53855.0,STARLINK-4703,PAYLOAD,2024-05-24 21:21:16,15.0884406,0.0001094,53.2164,348.8867,90.2354,269.8763,0.00016775,2.383e-05,0.0,0 STARLINK-4703,1 53855U 22114AP  24145.88977067  .00002383  00000-0  16775-3 0  9999,2 53855  53.2164 348.8867 0001094  90.2354 269.8763 15.08844060 94279,6917.868,95.437,540.49,538.976,0.0
53855.0,STARLINK-4703,PAYLOAD,2024-05-24 22:56:39,15.0884278,0.0001112,53.2163,348.589,95.1045,265.0074,0.00012048,1.63e-05,0.0,0 STARLINK-4703,1 53855U 22114AP  24145.95601057  .00001630  00000-0  12048-3 0  9993,2 53855  53.2163 348.5890 0001112  95.1045 265.0074 15.08842780 93744,6917.872,95.437,540.506,538.968,0.0
53855.0,STARLINK-4703,PAYLOAD,2024-05-25 13:15:07,15.08850186,0.0002029,53.2142,345.9184,84.6102,275.5121,0.00020296,2.944e-05,0.0,0 STARLINK-4703,1 53855U 22114AP  24146.55217148  .00002944  00000-0  20296-3 0  9997,2 53855  53.2142 345.9184 0002029  84.6102 275.5121 15.08850186 94371,6917.849,95.437,541.118,538.311,0.0
53855.0,STARLINK-4703,PAYLOAD,2024-05-25 19:36:40,15.08831987,0.0001032,53.2154,344.7272,79.8347,280.2761,-4.3407e-05,-9.78e-06,0.0,0 STARLINK-4703,1 53855U 22114AP  24146.81713719 -.00000978  00000-0 -43407-4 0  9998,2 53855  53.2154 344.7272 0001032  79.8347 280.2761 15.08831987 93874,6917.905,95.438,540.484,539.056,0.0
53855.0,STARLINK-4703,PAYLOAD,2024-05-25 22:47:26,15.08838545,0.0001134,53.2166,344.1302,87.4117,272.7005,4.2023e-05,3.81e-06,0.0,0 STARLINK-4703,1 53855U 22114AP  24146.94961418  .00000381  00000-0  42023-4 0  9992,2 53855  53.2166 344.1302 0001134  87.4117 272.7005 15.08838545 93894,6917.885,95.438,540.534,538.965,0.0
53855.0,STARLINK-4703,PAYLOAD,2024-05-26 17:52:04,15.08828948,8.98e-05,53.2163,340.5619,88.2254,271.8841,0.0004229,6.447e-05,0.0,0 STARLINK-4703,1 53855U 22114AP  24147.74449962  .00006447  00000-0  42290-3 0  9990,2 53855  53.2163 340.5619 0000898  88.2254 271.8841 15.08828948 94018,6917.914,95.438,540.4,539.158,0.0
